CCSDS_OMM_VERS = 2.0
CREATION_DATE  = 
ORIGINATOR     = 

OBJECT_NAME    = SL-3 R/B
OBJECT_ID      = 1982-079B
CENTER_NAME    = EARTH
REF_FRAME      = TEME
TIME_SYSTEM    = UTC
MEAN_ELEMENT_THEORY = SGP/SGP4

EPOCH          = 2026-03-12T22:45:05.257728
MEAN_MOTION    = 15.24852448
ECCENTRICITY   = .0025193
INCLINATION    = 81.1477
RA_OF_ASC_NODE = 189.2302
ARG_OF_PERICENTER = 153.7775
MEAN_ANOMALY   = 206.4740

EPHEMERIS_TYPE = 0
CLASSIFICATION_TYPE = U
NORAD_CAT_ID   = 13403
ELEMENT_SET_NO = 999
REV_AT_EPOCH   = 37819
BSTAR          = .29777E-3
MEAN_MOTION_DOT = .749E-4
MEAN_MOTION_DDOT = 0

CCSDS_OMM_VERS = 2.0
CREATION_DATE  = 
ORIGINATOR     = 

OBJECT_NAME    = SL-14 R/B
OBJECT_ID      = 1982-092B
CENTER_NAME    = EARTH
REF_FRAME      = TEME
TIME_SYSTEM    = UTC
MEAN_ELEMENT_THEORY = SGP/SGP4

EPOCH          = 2026-03-12T16:23:37.286016
MEAN_MOTION    = 14.86669734
ECCENTRICITY   = .0018872
INCLINATION    = 82.5690
RA_OF_ASC_NODE = 138.6001
ARG_OF_PERICENTER = 292.9050
MEAN_ANOMALY   = 185.7518

EPHEMERIS_TYPE = 0
CLASSIFICATION_TYPE = U
NORAD_CAT_ID   = 13553
ELEMENT_SET_NO = 999
REV_AT_EPOCH   = 32937
BSTAR          = .58829E-4
MEAN_MOTION_DOT = .548E-5
MEAN_MOTION_DDOT = 0

CCSDS_OMM_VERS = 2.0
CREATION_DATE  = 
ORIGINATOR     = 

OBJECT_NAME    = SL-3 R/B
OBJECT_ID      = 1983-010B
CENTER_NAME    = EARTH
REF_FRAME      = TEME
TIME_SYSTEM    = UTC
MEAN_ELEMENT_THEORY = SGP/SGP4

EPOCH          = 2026-03-12T17:41:56.634720
MEAN_MOTION    = 15.46474228
ECCENTRICITY   = .0017733
INCLINATION    = 81.1062
RA_OF_ASC_NODE = 358.5108
ARG_OF_PERICENTER = 41.1623
MEAN_ANOMALY   = 319.0955

EPHEMERIS_TYPE = 0
CLASSIFICATION_TYPE = U
NORAD_CAT_ID   = 13819
ELEMENT_SET_NO = 999
REV_AT_EPOCH   = 35841
BSTAR          = .35449E-3
MEAN_MOTION_DOT = .17725E-3
MEAN_MOTION_DDOT = 0

CCSDS_OMM_VERS = 2.0
CREATION_DATE  = 
ORIGINATOR     = 

OBJECT_NAME    = SL-3 R/B
OBJECT_ID      = 1983-075B
CENTER_NAME    = EARTH
REF_FRAME      = TEME
TIME_SYSTEM    = UTC
MEAN_ELEMENT_THEORY = SGP/SGP4

EPOCH          = 2026-03-13T00:06:07.146432
MEAN_MOTION    = 15.38504931
ECCENTRICITY   = .0020446
INCLINATION    = 97.6145
RA_OF_ASC_NODE = 76.7071
ARG_OF_PERICENTER = 213.2813
MEAN_ANOMALY   = 146.7148

EPHEMERIS_TYPE = 0
CLASSIFICATION_TYPE = U
NORAD_CAT_ID   = 14208
ELEMENT_SET_NO = 999
REV_AT_EPOCH   = 33066
BSTAR          = .32189E-3
MEAN_MOTION_DOT = .12234E-3
MEAN_MOTION_DDOT = 0

CCSDS_OMM_VERS = 2.0
CREATION_DATE  = 
ORIGINATOR     = 

OBJECT_NAME    = COSMOS 1536
OBJECT_ID      = 1984-013A
CENTER_NAME    = EARTH
REF_FRAME      = TEME
TIME_SYSTEM    = UTC
MEAN_ELEMENT_THEORY = SGP/SGP4

EPOCH          = 2026-03-12T13:02:41.154432
MEAN_MOTION    = 15.23867314
ECCENTRICITY   = .0012526
INCLINATION    = 82.5430
RA_OF_ASC_NODE = 105.0133
ARG_OF_PERICENTER = 272.1389
MEAN_ANOMALY   = 87.8414

EPHEMERIS_TYPE = 0
CLASSIFICATION_TYPE = U
NORAD_CAT_ID   = 14699
ELEMENT_SET_NO = 999
REV_AT_EPOCH   = 27305
BSTAR          = .26945E-3
MEAN_MOTION_DOT = .6544E-4
MEAN_MOTION_DDOT = 0

CCSDS_OMM_VERS = 2.0
CREATION_DATE  = 
ORIGINATOR     = 

OBJECT_NAME    = SL-14 R/B
OBJECT_ID      = 1984-027B
CENTER_NAME    = EARTH
REF_FRAME      = TEME
TIME_SYSTEM    = UTC
MEAN_ELEMENT_THEORY = SGP/SGP4

EPOCH          = 2026-03-12T12:30:41.380992
MEAN_MOTION    = 14.85980010
ECCENTRICITY   = .0017146
INCLINATION    = 82.5390
RA_OF_ASC_NODE = 242.3562
ARG_OF_PERICENTER = 328.1982
MEAN_ANOMALY   = 31.8197

EPHEMERIS_TYPE = 0
CLASSIFICATION_TYPE = U
NORAD_CAT_ID   = 14820
ELEMENT_SET_NO = 999
REV_AT_EPOCH   = 24805
BSTAR          = .70929E-4
MEAN_MOTION_DOT = .645E-5
MEAN_MOTION_DDOT = 0

CCSDS_OMM_VERS = 2.0
CREATION_DATE  = 
ORIGINATOR     = 

OBJECT_NAME    = SL-8 R/B
OBJECT_ID      = 1985-006B
CENTER_NAME    = EARTH
REF_FRAME      = TEME
TIME_SYSTEM    = UTC
MEAN_ELEMENT_THEORY = SGP/SGP4

EPOCH          = 2026-03-13T00:12:48.567744
MEAN_MOTION    = 14.37785819
ECCENTRICITY   = .0018321
INCLINATION    = 74.0433
RA_OF_ASC_NODE = 255.0401
ARG_OF_PERICENTER = 172.0514
MEAN_ANOMALY   = 306.5614

EPHEMERIS_TYPE = 0
CLASSIFICATION_TYPE = U
NORAD_CAT_ID   = 15483
ELEMENT_SET_NO = 999
REV_AT_EPOCH   = 15450
BSTAR          = .14113E-3
MEAN_MOTION_DOT = .4E-5
MEAN_MOTION_DDOT = 0

CCSDS_OMM_VERS = 2.0
CREATION_DATE  = 
ORIGINATOR     = 

OBJECT_NAME    = SL-12 R/B(2)
OBJECT_ID      = 1985-042D
CENTER_NAME    = EARTH
REF_FRAME      = TEME
TIME_SYSTEM    = UTC
MEAN_ELEMENT_THEORY = SGP/SGP4

EPOCH          = 2026-03-12T10:55:42.119040
MEAN_MOTION    = 14.21983223
ECCENTRICITY   = .0033115
INCLINATION    = 71.1063
RA_OF_ASC_NODE = 81.8850
ARG_OF_PERICENTER = 123.5864
MEAN_ANOMALY   = 28.0577

EPHEMERIS_TYPE = 0
CLASSIFICATION_TYPE = U
NORAD_CAT_ID   = 15772
ELEMENT_SET_NO = 999
REV_AT_EPOCH   = 11478
BSTAR          = .93673E-4
MEAN_MOTION_DOT = .161E-5
MEAN_MOTION_DDOT = 0

CCSDS_OMM_VERS = 2.0
CREATION_DATE  = 
ORIGINATOR     = 

OBJECT_NAME    = SL-14 R/B
OBJECT_ID      = 1985-069B
CENTER_NAME    = EARTH
REF_FRAME      = TEME
TIME_SYSTEM    = UTC
MEAN_ELEMENT_THEORY = SGP/SGP4

EPOCH          = 2026-03-12T20:12:13.381920
MEAN_MOTION    = 14.86437421
ECCENTRICITY   = .0018759
INCLINATION    = 82.5290
RA_OF_ASC_NODE = 21.9693
ARG_OF_PERICENTER = 177.1716
MEAN_ANOMALY   = 182.9610

EPHEMERIS_TYPE = 0
CLASSIFICATION_TYPE = U
NORAD_CAT_ID   = 15945
ELEMENT_SET_NO = 999
REV_AT_EPOCH   = 17330
BSTAR          = .71593E-4
MEAN_MOTION_DOT = .658E-5
MEAN_MOTION_DDOT = 0

CCSDS_OMM_VERS = 2.0
CREATION_DATE  = 
ORIGINATOR     = 

OBJECT_NAME    = SL-16 R/B
OBJECT_ID      = 1985-097B
CENTER_NAME    = EARTH
REF_FRAME      = TEME
TIME_SYSTEM    = UTC
MEAN_ELEMENT_THEORY = SGP/SGP4

EPOCH          = 2026-03-12T14:51:20.909664
MEAN_MOTION    = 14.16598266
ECCENTRICITY   = .0009838
INCLINATION    = 71.0022
RA_OF_ASC_NODE = 134.3878
ARG_OF_PERICENTER = 256.2098
MEAN_ANOMALY   = 265.4106

EPHEMERIS_TYPE = 0
CLASSIFICATION_TYPE = U
NORAD_CAT_ID   = 16182
ELEMENT_SET_NO = 999
REV_AT_EPOCH   = 8764
BSTAR          = -.36132E-4
MEAN_MOTION_DOT = -.12E-5
MEAN_MOTION_DDOT = 0

CCSDS_OMM_VERS = 2.0
CREATION_DATE  = 
ORIGINATOR     = 

OBJECT_NAME    = SL-14 R/B
OBJECT_ID      = 1986-006B
CENTER_NAME    = EARTH
REF_FRAME      = TEME
TIME_SYSTEM    = UTC
MEAN_ELEMENT_THEORY = SGP/SGP4

EPOCH          = 2026-03-12T14:47:17.081088
MEAN_MOTION    = 14.86819773
ECCENTRICITY   = .007506
INCLINATION    = 82.5236
RA_OF_ASC_NODE = 256.9821
ARG_OF_PERICENTER = 262.8934
MEAN_ANOMALY   = 96.3743

EPHEMERIS_TYPE = 0
CLASSIFICATION_TYPE = U
NORAD_CAT_ID   = 16496
ELEMENT_SET_NO = 999
REV_AT_EPOCH   = 14964
BSTAR          = .87591E-4
MEAN_MOTION_DOT = .847E-5
MEAN_MOTION_DDOT = 0

CCSDS_OMM_VERS = 2.0
CREATION_DATE  = 
ORIGINATOR     = 

OBJECT_NAME    = COSMOS 1743
OBJECT_ID      = 1986-034A
CENTER_NAME    = EARTH
REF_FRAME      = TEME
TIME_SYSTEM    = UTC
MEAN_ELEMENT_THEORY = SGP/SGP4

EPOCH          = 2026-03-12T23:31:48.887616
MEAN_MOTION    = 15.58811671
ECCENTRICITY   = .0001511
INCLINATION    = 82.5291
RA_OF_ASC_NODE = 70.3764
ARG_OF_PERICENTER = 259.9622
MEAN_ANOMALY   = 100.1464

EPHEMERIS_TYPE = 0
CLASSIFICATION_TYPE = U
NORAD_CAT_ID   = 16719
ELEMENT_SET_NO = 999
REV_AT_EPOCH   = 18076
BSTAR          = .50906E-3
MEAN_MOTION_DOT = .39456E-3
MEAN_MOTION_DDOT = 0

